{"type": "FeatureCollection", "features": [ {"type": "Feature", "properties": {"norad_id": 66476, "name": "STARLINK-35372", "group": "last-30-days", "lat": 29.158590423227132, "lon": 167.4093906070311, "alt_km": 372.6020199021077, "timestamp": "2025-12-02T13:52:16.065046+00:00", "meta": {"OBJECT_NAME": "STARLINK-35372", "OBJECT_ID": "2025-262W", "EPOCH": "2025-12-02T06:00:02.999808", "MEAN_MOTION": 15.65434747, "ECCENTRICITY": 0.00017931, "INCLINATION": 42.9997, "RA_OF_ASC_NODE": 132.5885, "ARG_OF_PERICENTER": 271.3813, "MEAN_ANOMALY": 84.8806, "EPHEMERIS_TYPE": 0, "CLASSIFICATION_TYPE": "U", "NORAD_CAT_ID": 66476, "ELEMENT_SET_NO": 999, "REV_AT_EPOCH": 384, "BSTAR": -0.023382894, "MEAN_MOTION_DOT": -0.02100184, "MEAN_MOTION_DDOT": 0}, "tle": {"line1": "1 66476U 25262W   25336.25003472 -.02100184  00000+0 -23383-1 0  9995", "line2": "2 66476  42.9997 132.5885 0001793 271.3813  84.8806 15.65434747  3843"}}, "geometry": {"type": "Point", "coordinates": [167.4093906070311, 29.158590423227132]}}, {"type": "Feature", "properties": {"norad_id": 66477, "name": "STARLINK-35354", "group": "last-30-days", "lat": 31.20161163107839, "lon": 171.1577925869494, "alt_km": 372.3090513809384, "timestamp": "2025-12-02T13:52:16.065057+00:00", "meta": {"OBJECT_NAME": "STARLINK-35354", "OBJECT_ID": "2025-262X", "EPOCH": "2025-12-02T06:00:02.999808", "MEAN_MOTION": 15.65432481, "ECCENTRICITY": 0.00016484, "INCLINATION": 42.9997, "RA_OF_ASC_NODE": 132.5781, "ARG_OF_PERICENTER": 269.3514, "MEAN_ANOMALY": 90.7492, "EPHEMERIS_TYPE": 0, "CLASSIFICATION_TYPE": "U", "NORAD_CAT_ID": 66477, "ELEMENT_SET_NO": 999, "REV_AT_EPOCH": 395, "BSTAR": -0.023372632, "MEAN_MOTION_DOT": -0.02099086, "MEAN_MOTION_DDOT": 0}, "tle": {"line1": "1 66477U 25262X   25336.25003472 -.02099086  00000+0 -23373-1 0  9993", "line2": "2 66477  42.9997 132.5781 0001648 269.3514  90.7492 15.65432481  3955"}}, "geometry": {"type": "Point", "coordinates": [171.1577925869494, 31.20161163107839]}}, {"type": "Feature", "properties": {"norad_id": 66478, "name": "STARLINK-35283", "group": "last-30-days", "lat": 32.18137667610464, "lon": 173.09253019513082, "alt_km": 372.269536925588, "timestamp": "2025-12-02T13:52:16.065067+00:00", "meta": {"OBJECT_NAME": "STARLINK-35283", "OBJECT_ID": "2025-262Y", "EPOCH": "2025-12-02T06:00:02.999808", "MEAN_MOTION": 15.65436307, "ECCENTRICITY": 0.0001847, "INCLINATION": 42.9995, "RA_OF_ASC_NODE": 132.573, "ARG_OF_PERICENTER": 270.2046, "MEAN_ANOMALY": 91.8095, "EPHEMERIS_TYPE": 0, "CLASSIFICATION_TYPE": "U", "NORAD_CAT_ID": 66478, "ELEMENT_SET_NO": 999, "REV_AT_EPOCH": 395, "BSTAR": -0.023423281, "MEAN_MOTION_DOT": -0.02103506, "MEAN_MOTION_DDOT": 0}, "tle": {"line1": "1 66478U 25262Y   25336.25003472 -.02103506  00000+0 -23423-1 0  9993", "line2": "2 66478  42.9995 132.5730 0001847 270.2046  91.8095 15.65436307  3952"}}, "geometry": {"type": "Point", "coordinates": [173.09253019513082, 32.18137667610464]}}, {"type": "Feature", "properties": {"norad_id": 66479, "name": "STARLINK-35581", "group": "last-30-days", "lat": 30.193109597257777, "lon": 169.26258293034334, "alt_km": 372.3980382120635, "timestamp": "2025-12-02T13:52:16.065077+00:00", "meta": {"OBJECT_NAME": "STARLINK-35581", "OBJECT_ID": "2025-262Z", "EPOCH": "2025-12-02T06:00:02.999808", "MEAN_MOTION": 15.65429513, "ECCENTRICITY": 0.00017448, "INCLINATION": 42.9997, "RA_OF_ASC_NODE": 132.5825, "ARG_OF_PERICENTER": 273.5568, "MEAN_ANOMALY": 84.6238, "EPHEMERIS_TYPE": 0, "CLASSIFICATION_TYPE": "U", "NORAD_CAT_ID": 66479, "ELEMENT_SET_NO": 999, "REV_AT_EPOCH": 395, "BSTAR": -0.023287412, "MEAN_MOTION_DOT": -0.02092283, "MEAN_MOTION_DDOT": 0}, "tle": {"line1": "1 66479U 25262Z   25336.25003472 -.02092283  00000+0 -23287-1 0  9991", "line2": "2 66479  42.9997 132.5825 0001744 273.5568  84.6238 15.65429513  3951"}}, "geometry": {"type": "Point", "coordinates": [169.26258293034334, 30.193109597257777]}}, {"type": "Feature", "properties": {"norad_id": 66480, "name": "STARLINK-35670", "group": "last-30-days", "lat": 33.12930787596336, "lon": 175.06502457934755, "alt_km": 372.1432115489706, "timestamp": "2025-12-02T13:52:16.065091+00:00", "meta": {"OBJECT_NAME": "STARLINK-35670", "OBJECT_ID": "2025-262AA", "EPOCH": "2025-12-02T06:00:02.999808", "MEAN_MOTION": 15.65434308, "ECCENTRICITY": 0.00018385, "INCLINATION": 42.9994, "RA_OF_ASC_NODE": 132.5677, "ARG_OF_PERICENTER": 269.6428, "MEAN_ANOMALY": 94.285, "EPHEMERIS_TYPE": 0, "CLASSIFICATION_TYPE": "U", "NORAD_CAT_ID": 66480, "ELEMENT_SET_NO": 999, "REV_AT_EPOCH": 395, "BSTAR": -0.023336852, "MEAN_MOTION_DOT": -0.02096591, "MEAN_MOTION_DDOT": 0}, "tle": {"line1": "1 66480U 25262AA  25336.25003472 -.02096591  00000+0 -23337-1 0  9995", "line2": "2 66480  42.9994 132.5677 0001838 269.6428  94.2850 15.65434308  3955"}}, "geometry": {"type": "Point", "coordinates": [175.06502457934755, 33.12930787596336]}}, {"type": "Feature", "properties": {"norad_id": 66481, "name": "STARLINK-35698", "group": "last-30-days", "lat": 34.047484617327804, "lon": 177.08488284138923, "alt_km": 371.9281822204357, "timestamp": "2025-12-02T13:52:16.065102+00:00", "meta": {"OBJECT_NAME": "STARLINK-35698", "OBJECT_ID": "2025-262AB", "EPOCH": "2025-12-02T06:00:02.999808", "MEAN_MOTION": 15.65432483, "ECCENTRICITY": 0.00017131, "INCLINATION": 42.9994, "RA_OF_ASC_NODE": 132.5626, "ARG_OF_PERICENTER": 271.733, "MEAN_ANOMALY": 94.1164, "EPHEMERIS_TYPE": 0, "CLASSIFICATION_TYPE": "U", "NORAD_CAT_ID": 66481, "ELEMENT_SET_NO": 999, "REV_AT_EPOCH": 395, "BSTAR": -0.023350582, "MEAN_MOTION_DOT": -0.02097419, "MEAN_MOTION_DDOT": 0}, "tle": {"line1": "1 66481U 25262AB  25336.25003472 -.02097419  00000+0 -23351-1 0  9992", "line2": "2 66481  42.9994 132.5626 0001713 271.7330  94.1164 15.65432483  3957"}}, "geometry": {"type": "Point", "coordinates": [177.08488284138923, 34.047484617327804]}}, {"type": "Feature", "properties": {"norad_id": 66482, "name": "STARLINK-35648", "group": "last-30-days", "lat": 34.93047311254805, "lon": 179.145667049511, "alt_km": 371.8230088459495, "timestamp": "2025-12-02T13:52:16.065114+00:00", "meta": {"OBJECT_NAME": "STARLINK-35648", "OBJECT_ID": "2025-262AC", "EPOCH": "2025-12-02T06:00:02.999808", "MEAN_MOTION": 15.65430208, "ECCENTRICITY": 0.00017253, "INCLINATION": 42.9994, "RA_OF_ASC_NODE": 132.558, "ARG_OF_PERICENTER": 271.2826, "MEAN_ANOMALY": 96.4829, "EPHEMERIS_TYPE": 0, "CLASSIFICATION_TYPE": "U", "NORAD_CAT_ID": 66482, "ELEMENT_SET_NO": 999, "REV_AT_EPOCH": 379, "BSTAR": -0.023283805, "MEAN_MOTION_DOT": -0.02092036, "MEAN_MOTION_DDOT": 0}, "tle": {"line1": "1 66482U 25262AC  25336.25003472 -.02092036  00000+0 -23284-1 0  9998", "line2": "2 66482  42.9994 132.5580 0001725 271.2826  96.4829 15.65430208  3793"}}, "geometry": {"type": "Point", "coordinates": [179.145667049511, 34.93047311254805]}}, {"type": "Feature", "properties": {"norad_id": 66483, "name": "STARLINK-35654", "group": "last-30-days", "lat": 35.77905728419821, "lon": -178.74764235049395, "alt_km": 371.71916051991866, "timestamp": "2025-12-02T13:52:16.065126+00:00", "meta": {"OBJECT_NAME": "STARLINK-35654", "OBJECT_ID": "2025-262AD", "EPOCH": "2025-12-02T06:00:02.999808", "MEAN_MOTION": 15.65433163, "ECCENTRICITY": 0.00017574, "INCLINATION": 42.9995, "RA_OF_ASC_NODE": 132.5522, "ARG_OF_PERICENTER": 272.5291, "MEAN_ANOMALY": 97.154, "EPHEMERIS_TYPE": 0, "CLASSIFICATION_TYPE": "U", "NORAD_CAT_ID": 66483, "ELEMENT_SET_NO": 999, "REV_AT_EPOCH": 395, "BSTAR": -0.023359947, "MEAN_MOTION_DOT": -0.0209824, "MEAN_MOTION_DDOT": 0}, "tle": {"line1": "1 66483U 25262AD  25336.25003472 -.02098240  00000+0 -23360-1 0  9997", "line2": "2 66483  42.9995 132.5522 0001757 272.5291  97.1540 15.65433163  3955"}}, "geometry": {"type": "Point", "coordinates": [-178.74764235049395, 35.77905728419821]}}, {"type": "Feature", "properties": {"norad_id": 66484, "name": "STARLINK-35371", "group": "last-30-days", "lat": 36.58880452527479, "lon": -176.5968078288227, "alt_km": 371.6788712327143, "timestamp": "2025-12-02T13:52:16.065137+00:00", "meta": {"OBJECT_NAME": "STARLINK-35371", "OBJECT_ID": "2025-262AE", "EPOCH": "2025-12-02T06:00:02.999808", "MEAN_MOTION": 15.65434719, "ECCENTRICITY": 0.00017972, "INCLINATION": 42.9995, "RA_OF_ASC_NODE": 132.5488, "ARG_OF_PERICENTER": 269.9995, "MEAN_ANOMALY": 101.5996, "EPHEMERIS_TYPE": 0, "CLASSIFICATION_TYPE": "U", "NORAD_CAT_ID": 66484, "ELEMENT_SET_NO": 999, "REV_AT_EPOCH": 395, "BSTAR": -0.023380982, "MEAN_MOTION_DOT": -0.02100036, "MEAN_MOTION_DDOT": 0}, "tle": {"line1": "1 66484U 25262AE  25336.25003472 -.02100036  00000+0 -23381-1 0  9998", "line2": "2 66484  42.9995 132.5488 0001797 269.9995 101.5996 15.65434719  3955"}}, "geometry": {"type": "Point", "coordinates": [-176.5968078288227, 36.58880452527479]}}, {"type": "Feature", "properties": {"norad_id": 66485, "name": "STARLINK-34774", "group": "last-30-days", "lat": 38.091276271915504, "lon": -52.04514089811747, "alt_km": 339.95810110847924, "timestamp": "2025-12-02T13:52:16.065147+00:00", "meta": {"OBJECT_NAME": "STARLINK-34774", "OBJECT_ID": "2025-263A", "EPOCH": "2025-12-02T06:00:02.999808", "MEAN_MOTION": 15.75145374, "ECCENTRICITY": 0.00020375, "INCLINATION": 42.9989, "RA_OF_ASC_NODE": 187.2149, "ARG_OF_PERICENTER": 274.6174, "MEAN_ANOMALY": 138.8414, "EPHEMERIS_TYPE": 0, "CLASSIFICATION_TYPE": "U", "NORAD_CAT_ID": 66485, "ELEMENT_SET_NO": 999, "REV_AT_EPOCH": 394, "BSTAR": -0.001785592, "MEAN_MOTION_DOT": -0.00267524, "MEAN_MOTION_DDOT": 0}, "tle": {"line1": "1 66485U 25263A   25336.25003472 -.00267524  00000+0 -17856-2 0  9995", "line2": "2 66485  42.9989 187.2149 0002037 274.6174 138.8414 15.75145374  3944"}}, "geometry": {"type": "Point", "coordinates": [-52.04514089811747, 38.091276271915504]}}]}